{
    "links": {
        "self": "http://www.neowsapp.com/rest/v1/neo/3367128?api_key=iIulBulltgU6a56xZRHN4H3l9WmuAYTsLGpBGhQ2"
    },
    "id": "3367128",
    "neo_reference_id": "3367128",
    "name": "(2007 BZ48)",
    "designation": "2007 BZ48",
    "nasa_jpl_url": "http://ssd.jpl.nasa.gov/sbdb.cgi?sstr=3367128",
    "absolute_magnitude_h": 26.0,
    "estimated_diameter": {
        "kilometers": {
            "estimated_diameter_min": 0.0167708462,
            "estimated_diameter_max": 0.0375007522
        },
        "meters": {
            "estimated_diameter_min": 16.7708462163,
            "estimated_diameter_max": 37.5007521798
        },
        "miles": {
            "estimated_diameter_min": 0.0104209175,
            "estimated_diameter_max": 0.0233018799
        },
        "feet": {
            "estimated_diameter_min": 55.0224631002,
            "estimated_diameter_max": 123.0339677816
        }
    },
    "is_potentially_hazardous_asteroid": false,
    "close_approach_data": [
        {
            "close_approach_date": "2007-02-07",
            "close_approach_date_full": "2007-Feb-07 09:55",
            "epoch_date_close_approach": 1170842100000,
            "relative_velocity": {
                "kilometers_per_second": "8.2489886155",
                "kilometers_per_hour": "29696.3590159408",
                "miles_per_hour": "18452.1626340994"
            },
            "miss_distance": {
                "astronomical": "0.0114957909",
                "lunar": "4.4718626601",
                "kilometers": "1719745.832605383",
                "miles": "1068600.5087169654"
            },
            "orbiting_body": "Earth"
        },
        {
            "close_approach_date": "2007-02-07",
            "close_approach_date_full": "2007-Feb-07 10:32",
            "epoch_date_close_approach": 1170844320000,
            "relative_velocity": {
                "kilometers_per_second": "7.2988948473",
                "kilometers_per_hour": "26276.0214503172",
                "miles_per_hour": "16326.8978839485"
            },
            "miss_distance": {
                "astronomical": "0.009212878",
                "lunar": "3.583809542",
                "kilometers": "1378226.92536986",
                "miles": "856390.500069668"
            },
            "orbiting_body": "Moon"
        },
        {
            "close_approach_date": "2014-08-16",
            "close_approach_date_full": "2014-Aug-16 14:28",
            "epoch_date_close_approach": 1408199280000,
            "relative_velocity": {
                "kilometers_per_second": "14.311712364",
                "kilometers_per_hour": "51522.1645104774",
                "miles_per_hour": "32013.8693870797"
            },
            "miss_distance": {
                "astronomical": "0.0433309319",
                "lunar": "16.8557325091",
                "kilometers": "6482215.117355053",
                "miles": "4027861.6994956114"
            },
            "orbiting_body": "Mars"
        }
    ],
    "orbital_data": {
        "orbit_id": "11",
        "orbit_determination_date": "2017-04-06 09:07:08",
        "first_observation_date": "2007-01-27",
        "last_observation_date": "2007-02-07",
        "data_arc_in_days": 11,
        "observations_used": 42,
        "orbit_uncertainty": "7",
        "minimum_orbit_intersection": ".00530841",
        "jupiter_tisserand_invariant": "3.947",
        "epoch_osculation": "2459000.5",
        "eccentricity": ".4670167702329212",
        "semi_major_axis": "1.787741562606529",
        "inclination": ".6796247255509883",
        "ascending_node_longitude": "114.1541912506191",
        "orbital_period": "873.0830007222085",
        "perihelion_distance": ".952836272026872",
        "perihelion_argument": "53.80592614222267",
        "aphelion_distance": "2.622646853186185",
        "perihelion_time": "2459403.391763986365",
        "mean_anomaly": "193.8748607920275",
        "mean_motion": ".4123319314454758",
        "equinox": "J2000",
        "orbit_class": {
            "orbit_class_type": "APO",
            "orbit_class_description": "Near-Earth asteroid orbits which cross the Earth’s orbit similar to that of 1862 Apollo",
            "orbit_class_range": "a (semi-major axis) > 1.0 AU; q (perihelion) < 1.017 AU"
        }
    },
    "is_sentry_object": false
}